[{"OBJECT_NAME":"CONTECSAT-1","OBJECT_ID":"2024-043V","EPOCH":"2026-03-09T22:02:35.535840","MEAN_MOTION":15.34615346,"ECCENTRICITY":0.00100896,"INCLINATION":97.5476,"RA_OF_ASC_NODE":207.3735,"ARG_OF_PERICENTER":223.9905,"MEAN_ANOMALY":136.0535,"EPHEMERIS_TYPE":0,"CLASSIFICATION_TYPE":"U","NORAD_CAT_ID":59117,"ELEMENT_SET_NO":999,"REV_AT_EPOCH":11201,"BSTAR":0.0004369392,"MEAN_MOTION_DOT":0.00014607,"MEAN_MOTION_DDOT":0},{"OBJECT_NAME":"STARLINK-34526","OBJECT_ID":"2025-133K","EPOCH":"2026-03-09T10:35:19.551264","MEAN_MOTION":15.30195133,"ECCENTRICITY":0.0001248,"INCLINATION":53.1572,"RA_OF_ASC_NODE":117.7263,"ARG_OF_PERICENTER":102.743,"MEAN_ANOMALY":257.371,"EPHEMERIS_TYPE":0,"CLASSIFICATION_TYPE":"U","NORAD_CAT_ID":64481,"ELEMENT_SET_NO":999,"REV_AT_EPOCH":4104,"BSTAR":0.0004673297,"MEAN_MOTION_DOT":0.00013505,"MEAN_MOTION_DDOT":0}]
